YAOGAN-43 01G           
1 60464U 24148G   26068.44348481  .00010133  00000+0  35873-3 0  9993
2 60464  35.0006  62.0013 0007382 306.3543  53.6492 15.28332833 87004
STARLINK-32397          
1 61593U 24187V   26068.38048736 -.00000379  00000+0 -66436-6 0  9998
2 61593  53.1607  64.5183 0001304  93.2929 266.8221 15.30187450 79060
